NORAD_CAT_ID,OBJECT_NAME,OBJECT_TYPE,EPOCH,MEAN_MOTION,ECCENTRICITY,INCLINATION,RA_OF_ASC_NODE,ARG_OF_PERICENTER,MEAN_ANOMALY,BSTAR,MEAN_MOTION_DOT,MEAN_MOTION_DDOT,TLE_LINE0,TLE_LINE1,TLE_LINE2,SEMIMAJOR_AXIS,PERIOD,APOGEE,PERIGEE,DECAYED
52607.0,STARLINK-3947,PAYLOAD,2023-05-18 10:14:07,15.08833631,8.68e-05,53.2156,211.2062,99.0998,261.0092,2.0328e-05,3.6e-07,0.0,0 STARLINK-3947,1 52607U 22052K   23138.42647887  .00000036  00000-0  20328-4 0  9992,2 52607  53.2156 211.2062 0000868  99.0998 261.0092 15.08833631 56227,6917.9,95.438,540.365,539.164,0.0
52607.0,STARLINK-3947,PAYLOAD,2023-05-18 21:21:49,15.08838137,8.72e-05,53.2158,209.1249,89.0544,271.0548,5.9293e-05,6.56e-06,0.0,0 STARLINK-3947,1 52607U 22052K   23138.89015630  .00000656  00000-0  59293-4 0  9999,2 52607  53.2158 209.1249 0000872  89.0544 271.0548 15.08838137 55911,6917.886,95.438,540.354,539.148,0.0
52607.0,STARLINK-3947,PAYLOAD,2023-05-19 10:04:54,15.08840221,8.77e-05,53.2156,206.7456,89.1562,270.953,5.7649e-05,6.3e-06,0.0,0 STARLINK-3947,1 52607U 22052K   23139.42007639  .00000630  00000-0  57649-4 0  9994,2 52607  53.2156 206.7456 0000877  89.1562 270.9530 15.08840221 56375,6917.88,95.438,540.351,539.138,0.0
52607.0,STARLINK-3947,PAYLOAD,2023-05-19 21:12:36,15.08841659,8.33e-05,53.2157,204.664,95.3236,264.7851,3.8431e-05,3.24e-06,0.0,0 STARLINK-3947,1 52607U 22052K   23139.88375553  .00000324  00000-0  38431-4 0  9995,2 52607  53.2157 204.6640 0000833  95.3236 264.7851 15.08841659 56066,6917.875,95.437,540.317,539.164,0.0
52607.0,STARLINK-3947,PAYLOAD,2023-05-20 11:31:04,15.08844601,9.69e-05,53.2164,201.9876,86.8554,273.2549,0.00015523,2.184e-05,0.0,0 STARLINK-3947,1 52607U 22052K   23140.47991450  .00002184  00000-0  15523-3 0  9994,2 52607  53.2164 201.9876 0000969  86.8554 273.2549 15.08844601 56534,6917.866,95.437,540.402,539.061,0.0
52607.0,STARLINK-3947,PAYLOAD,2023-05-20 21:03:23,15.08847901,0.0001012,53.2155,200.2036,85.1184,274.9923,0.00017504,2.5e-05,0.0,0 STARLINK-3947,1 52607U 22052K   23140.87735168  .00002500  00000-0  17504-3 0  9993,2 52607  53.2155 200.2036 0001012  85.1184 274.9923 15.08847901 56210,6917.856,95.437,540.421,539.021,0.0
52607.0,STARLINK-3947,PAYLOAD,2023-05-21 12:57:14,15.0884937,0.0001056,53.2149,197.2296,83.2315,276.8797,0.0001624,2.298e-05,0.0,0 STARLINK-3947,1 52607U 22052K   23141.53974899  .00002298  00000-0  16240-3 0  9993,2 52607  53.2149 197.2296 0001056  83.2315 276.8797 15.08849370 56312,6917.852,95.437,540.447,538.986,0.0
52607.0,STARLINK-3947,PAYLOAD,2023-05-21 20:54:10,15.08839239,0.0001362,53.2166,195.7433,74.1189,285.9953,3.6997e-05,3.01e-06,0.0,0 STARLINK-3947,1 52607U 22052K   23141.87095597  .00000301  00000-0  36997-4 0  9994,2 52607  53.2166 195.7433 0001362  74.1189 285.9953 15.08839239 56368,6917.883,95.438,540.69,538.805,0.0
52607.0,STARLINK-3947,PAYLOAD,2023-05-21 22:29:33,15.08840226,0.0001256,53.2163,195.4459,73.038,287.075,4.2437e-05,3.88e-06,0.0,0 STARLINK-3947,1 52607U 22052K   23141.93719487  .00000388  00000-0  42437-4 0  9993,2 52607  53.2163 195.4459 0001256  73.0380 287.0750 15.08840226 56752,6917.88,95.438,540.614,538.876,0.0
52607.0,STARLINK-3947,PAYLOAD,2023-05-22 12:48:02,15.08833346,0.000107,53.2142,192.7672,79.8731,280.2382,-6.5554e-05,-1.331e-05,0.0,0 STARLINK-3947,1 52607U 22052K   23142.53336012 -.00001331  00000-0 -65554-4 0  9995,2 52607  53.2142 192.7672 0001070  79.8731 280.2382 15.08833346 56463,6917.901,95.438,540.506,539.026,0.0
52607.0,STARLINK-3947,PAYLOAD,2023-05-22 20:44:57,15.08836555,0.0001034,53.2142,191.2804,76.529,283.5818,4.1078e-06,-2.22e-06,0.0,0 STARLINK-3947,1 52607U 22052K   23142.86455989 -.00000222  00000-0  41078-5 0  9999,2 52607  53.2142 191.2804 0001034  76.5290 283.5818 15.08836555 56519,6917.891,95.438,540.471,539.041,0.0
52607.0,STARLINK-3947,PAYLOAD,2023-05-23 09:28:03,15.08840313,0.000101,53.2142,188.9025,75.1603,284.9501,7.4262e-05,8.94e-06,0.0,0 STARLINK-3947,1 52607U 22052K   23143.39448020  .00000894  00000-0  74262-4 0  9990,2 52607  53.2142 188.9025 0001010  75.1603 284.9501 15.08840313 56975,6917.879,95.438,540.443,539.046,0.0
52607.0,STARLINK-3947,PAYLOAD,2023-05-23 20:35:45,15.08842096,0.0001026,53.2142,186.8212,73.1464,286.9641,0.00013679,1.89e-05,0.0,0 STARLINK-3947,1 52607U 22052K   23143.85816049  .00001890  00000-0  13679-3 0  9992,2 52607  53.2142 186.8212 0001026  73.1464 286.9641 15.08842096 56663,6917.874,95.437,540.449,539.029,0.0
52607.0,STARLINK-3947,PAYLOAD,2023-05-24 07:43:27,15.08841915,0.0001102,53.2143,184.7398,68.5366,291.5743,0.00030153,4.515e-05,0.0,0 STARLINK-3947,1 52607U 22052K   23144.32184329  .00004515  00000-0  30153-3 0  9997,2 52607  53.2143 184.7398 0001102  68.5366 291.5743 15.08841915 56732,6917.875,95.437,540.502,538.977,0.0
52607.0,STARLINK-3947,PAYLOAD,2023-05-26 02:38:51,15.08841529,0.0001093,53.2153,176.7117,76.7905,283.3209,4.0765e-05,3.61e-06,0.0,0 STARLINK-3947,1 52607U 22052K   23146.11032122  .00000361  00000-0  40765-4 0  9995,2 52607  53.2153 176.7117 0001093  76.7905 283.3209 15.08841529 57381,6917.876,95.437,540.497,538.985,0.0
52607.0,STARLINK-3947,PAYLOAD,2023-05-26 09:00:24,15.08841371,0.000107,53.2161,175.5224,79.0361,281.0752,6.0041e-05,6.68e-06,0.0,0 STARLINK-3947,1 52607U 22052K   23146.37528182  .00000668  00000-0  60041-4 0  9998,2 52607  53.2161 175.5224 0001070  79.0361 281.0752 15.08841371 57049,6917.876,95.437,540.481,539.001,0.0
52607.0,STARLINK-3947,PAYLOAD,2023-05-27 02:29:39,15.08835246,0.0001026,53.2152,172.2502,79.8696,280.2412,5.1574e-05,5.33e-06,0.0,0 STARLINK-3947,1 52607U 22052K   23147.10392595  .00000533  00000-0  51574-4 0  9999,2 52607  53.2152 172.2502 0001026  79.8696 280.2412 15.08835246 57534,6917.895,95.438,540.47,539.05,0.0
52607.0,STARLINK-3947,PAYLOAD,2023-05-27 18:23:30,15.08836846,0.000103,53.2154,169.2772,76.9628,283.1479,5.5575e-05,5.97e-06,0.0,0 STARLINK-3947,1 52607U 22052K   23147.76632614  .00000597  00000-0  55575-4 0  9995,2 52607  53.2154 169.2772 0001030  76.9628 283.1479 15.08836846 57250,6917.89,95.438,540.468,539.042,0.0
52607.0,STARLINK-3947,PAYLOAD,2023-05-28 05:31:12,15.08840959,0.0001022,53.2151,167.195,74.9712,285.1393,6.755e-05,7.87e-06,0.0,0 STARLINK-3947,1 52607U 22052K   23148.23000389  .00000787  00000-0  67550-4 0  9993,2 52607  53.2151 167.1950 0001022  74.9712 285.1393 15.08840959 57320,6917.877,95.437,540.449,539.035,0.0
52607.0,STARLINK-3947,PAYLOAD,2023-05-28 10:17:21,15.08841754,0.000103,53.215,166.3028,72.7236,287.3868,6.9406e-05,8.17e-06,0.0,0 STARLINK-3947,1 52607U 22052K   23148.42872327  .00000817  00000-0  69406-4 0  9999,2 52607  53.2150 166.3028 0001030  72.7236 287.3868 15.08841754 57732,6917.875,95.437,540.453,539.027,0.0
52607.0,STARLINK-3947,PAYLOAD,2023-05-29 10:08:09,15.08838212,0.0001063,53.2152,161.8421,71.1817,288.929,7.1585e-05,8.52e-06,0.0,0 STARLINK-3947,1 52607U 22052K   23149.42232698  .00000852  00000-0  71585-4 0  9991,2 52607  53.2152 161.8421 0001063  71.1817 288.9290 15.08838212 57882,6917.886,95.438,540.486,539.015,0.0
52607.0,STARLINK-3947,PAYLOAD,2023-05-29 18:05:04,15.08839341,0.0001068,53.2153,160.3554,71.7554,288.3554,6.6742e-05,7.75e-06,0.0,0 STARLINK-3947,1 52607U 22052K   23149.75352656  .00000775  00000-0  66742-4 0  9997,2 52607  53.2153 160.3554 0001068  71.7554 288.3554 15.08839341 57558,6917.882,95.438,540.486,539.009,0.0
52607.0,STARLINK-3947,PAYLOAD,2023-05-30 06:48:09,15.08841477,0.0001082,53.2152,157.9763,73.0408,287.0703,4.7185e-05,4.63e-06,0.0,0 STARLINK-3947,1 52607U 22052K   23150.28344556  .00000463  00000-0  47185-4 0  9991,2 52607  53.2152 157.9763 0001082  73.0408 287.0703 15.08841477 57634,6917.876,95.437,540.489,538.992,0.0
52607.0,STARLINK-3947,PAYLOAD,2023-05-30 17:55:51,15.08841471,0.0001073,53.2152,155.8943,73.9381,286.1729,6.0757e-05,6.79e-06,0.0,0 STARLINK-3947,1 52607U 22052K   23150.74712481  .00000679  00000-0  60757-4 0  9997,2 52607  53.2152 155.8943 0001073  73.9381 286.1729 15.08841471 58082,6917.876,95.437,540.483,538.999,0.0
52607.0,STARLINK-3947,PAYLOAD,2023-05-31 09:49:42,15.08842181,0.0001097,53.2152,152.9207,74.1953,285.916,8.2178e-05,1.02e-05,0.0,0 STARLINK-3947,1 52607U 22052K   23151.40952390  .00001020  00000-0  82178-4 0  9998,2 52607  53.2152 152.9207 0001097  74.1953 285.9160 15.08842181 57801,6917.874,95.437,540.498,538.98,0.0
52607.0,STARLINK-3947,PAYLOAD,2023-05-31 22:32:48,15.08839652,0.0001104,53.2149,150.5412,75.4916,284.6199,3.9333e-05,3.38e-06,0.0,0 STARLINK-3947,1 52607U 22052K   23151.93944649  .00000338  00000-0  39333-4 0  9990,2 52607  53.2149 150.5412 0001104  75.4916 284.6199 15.08839652 58269,6917.881,95.438,540.51,538.983,0.0
52607.0,STARLINK-3947,PAYLOAD,2023-06-01 09:40:30,15.08839776,0.0001121,53.2151,148.4598,75.7482,284.3635,3.8104e-05,3.19e-06,0.0,0 STARLINK-3947,1 52607U 22052K   23152.40312631  .00000319  00000-0  38104-4 0  9997,2 52607  53.2151 148.4598 0001121  75.7482 284.3635 15.08839776 57957,6917.881,95.438,540.522,538.971,0.0
52607.0,STARLINK-3947,PAYLOAD,2023-06-01 23:58:58,15.08838158,0.0001137,53.2152,145.7831,76.2295,283.8823,1.7471e-05,-1e-07,0.0,0 STARLINK-3947,1 52607U 22052K   23152.99928842 -.00000010  00000-0  17471-4 0  9991,2 52607  53.2152 145.7831 0001137  76.2295 283.8823 15.08838158 58422,6917.886,95.438,540.538,538.964,0.0
52607.0,STARLINK-3947,PAYLOAD,2023-06-02 06:20:30,15.0883919,0.0001145,53.2153,144.5937,75.5155,284.5964,2.2856e-05,7.6e-07,0.0,0 STARLINK-3947,1 52607U 22052K   23153.26424765  .00000076  00000-0  22856-4 0  9991,2 52607  53.2153 144.5937 0001145  75.5155 284.5964 15.08839190 58086,6917.883,95.438,540.54,538.956,0.0
52607.0,STARLINK-3947,PAYLOAD,2023-06-02 15:52:49,15.08837786,0.0001163,53.2154,142.8098,75.2723,284.8398,1.9427e-05,2.1e-07,0.0,0 STARLINK-3947,1 52607U 22052K   23153.66168946  .00000021  00000-0  19427-4 0  9991,2 52607  53.2154 142.8098 0001163  75.2723 284.8398 15.08837786 58144,6917.887,95.438,540.557,538.948,0.0
